[
    {
        "OBJECT_NAME": "SL-3 R/B",
        "OBJECT_ID": "1983-010B",
        "EPOCH": "2026-04-18T14:30:09.406656",
        "MEAN_MOTION": 15.4757289,
        "ECCENTRICITY": 0.0015024,
        "INCLINATION": 81.1009,
        "RA_OF_ASC_NODE": 313.2598,
        "ARG_OF_PERICENTER": 267.9304,
        "MEAN_ANOMALY": 92.0221,
        "EPHEMERIS_TYPE": 0,
        "CLASSIFICATION_TYPE": "U",
        "NORAD_CAT_ID": 13819,
        "ELEMENT_SET_NO": 999,
        "REV_AT_EPOCH": 36411,
        "BSTAR": 0.00023593,
        "MEAN_MOTION_DOT": 0.00012233,
        "MEAN_MOTION_DDOT": 0
    },
    {
        "OBJECT_NAME": "SL-3 R/B",
        "OBJECT_ID": "1983-075B",
        "EPOCH": "2026-04-18T19:21:35.588160",
        "MEAN_MOTION": 15.39329798,
        "ECCENTRICITY": 0.0023217,
        "INCLINATION": 97.6127,
        "RA_OF_ASC_NODE": 114.9333,
        "ARG_OF_PERICENTER": 87.037,
        "MEAN_ANOMALY": 273.3531,
        "EPHEMERIS_TYPE": 0,
        "CLASSIFICATION_TYPE": "U",
        "NORAD_CAT_ID": 14208,
        "ELEMENT_SET_NO": 999,
        "REV_AT_EPOCH": 33632,
        "BSTAR": 0.00024339,
        "MEAN_MOTION_DOT": 9.5e-05,
        "MEAN_MOTION_DDOT": 0
    },
    {
        "OBJECT_NAME": "COSMOS 1536",
        "OBJECT_ID": "1984-013A",
        "EPOCH": "2026-04-18T20:01:58.065312",
        "MEAN_MOTION": 15.24366399,
        "ECCENTRICITY": 0.0015687,
        "INCLINATION": 82.5445,
        "RA_OF_ASC_NODE": 67.9176,
        "ARG_OF_PERICENTER": 135.3319,
        "MEAN_ANOMALY": 224.9185,
        "EPHEMERIS_TYPE": 0,
        "CLASSIFICATION_TYPE": "U",
        "NORAD_CAT_ID": 14699,
        "ELEMENT_SET_NO": 999,
        "REV_AT_EPOCH": 27873,
        "BSTAR": 0.00024193,
        "MEAN_MOTION_DOT": 5.975e-05,
        "MEAN_MOTION_DDOT": 0
    },
    {
        "OBJECT_NAME": "SL-14 R/B",
        "OBJECT_ID": "1984-027B",
        "EPOCH": "2026-04-18T13:21:10.038816",
        "MEAN_MOTION": 14.86017608,
        "ECCENTRICITY": 0.00175353,
        "INCLINATION": 82.5442,
        "RA_OF_ASC_NODE": 207.6275,
        "ARG_OF_PERICENTER": 196.7511,
        "MEAN_ANOMALY": 163.3129,
        "EPHEMERIS_TYPE": 0,
        "CLASSIFICATION_TYPE": "U",
        "NORAD_CAT_ID": 14820,
        "ELEMENT_SET_NO": 999,
        "REV_AT_EPOCH": 25355,
        "BSTAR": 3.4781105e-05,
        "MEAN_MOTION_DOT": 3.29e-06,
        "MEAN_MOTION_DDOT": 0
    },
    {
        "OBJECT_NAME": "SL-8 R/B",
        "OBJECT_ID": "1985-006B",
        "EPOCH": "2026-04-18T14:30:56.581056",
        "MEAN_MOTION": 14.37808728,
        "ECCENTRICITY": 0.0017197,
        "INCLINATION": 74.0462,
        "RA_OF_ASC_NODE": 187.7024,
        "ARG_OF_PERICENTER": 92.422,
        "MEAN_ANOMALY": 13.1046,
        "EPHEMERIS_TYPE": 0,
        "CLASSIFICATION_TYPE": "U",
        "NORAD_CAT_ID": 15483,
        "ELEMENT_SET_NO": 999,
        "REV_AT_EPOCH": 15976,
        "BSTAR": 5.6548e-05,
        "MEAN_MOTION_DOT": 1.45e-06,
        "MEAN_MOTION_DDOT": 0
    },
    {
        "OBJECT_NAME": "SL-12 R/B(2)",
        "OBJECT_ID": "1985-042D",
        "EPOCH": "2026-04-18T20:36:46.514880",
        "MEAN_MOTION": 14.21993634,
        "ECCENTRICITY": 0.0033204,
        "INCLINATION": 71.1104,
        "RA_OF_ASC_NODE": 2.8635,
        "ARG_OF_PERICENTER": 61.5417,
        "MEAN_ANOMALY": 346.4829,
        "EPHEMERIS_TYPE": 0,
        "CLASSIFICATION_TYPE": "U",
        "NORAD_CAT_ID": 15772,
        "ELEMENT_SET_NO": 999,
        "REV_AT_EPOCH": 12010,
        "BSTAR": 1.473e-05,
        "MEAN_MOTION_DOT": -1.5e-07,
        "MEAN_MOTION_DDOT": 0
    },
    {
        "OBJECT_NAME": "SL-14 R/B",
        "OBJECT_ID": "1985-069B",
        "EPOCH": "2026-04-18T14:18:37.035936",
        "MEAN_MOTION": 14.86472564,
        "ECCENTRICITY": 0.0020197,
        "INCLINATION": 82.5286,
        "RA_OF_ASC_NODE": 347.4182,
        "ARG_OF_PERICENTER": 62.506,
        "MEAN_ANOMALY": 297.8207,
        "EPHEMERIS_TYPE": 0,
        "CLASSIFICATION_TYPE": "U",
        "NORAD_CAT_ID": 15945,
        "ELEMENT_SET_NO": 999,
        "REV_AT_EPOCH": 17876,
        "BSTAR": 2.969e-05,
        "MEAN_MOTION_DOT": 2.88e-06,
        "MEAN_MOTION_DDOT": 0
    },
    {
        "OBJECT_NAME": "SL-16 R/B",
        "OBJECT_ID": "1985-097B",
        "EPOCH": "2026-04-18T14:56:09.913344",
        "MEAN_MOTION": 14.16606928,
        "ECCENTRICITY": 0.0008455,
        "INCLINATION": 71.0036,
        "RA_OF_ASC_NODE": 56.4794,
        "ARG_OF_PERICENTER": 210.989,
        "MEAN_ANOMALY": 322.7358,
        "EPHEMERIS_TYPE": 0,
        "CLASSIFICATION_TYPE": "U",
        "NORAD_CAT_ID": 16182,
        "ELEMENT_SET_NO": 999,
        "REV_AT_EPOCH": 9288,
        "BSTAR": 5.63e-05,
        "MEAN_MOTION_DOT": 6.5e-07,
        "MEAN_MOTION_DDOT": 0
    },
    {
        "OBJECT_NAME": "SL-14 R/B",
        "OBJECT_ID": "1986-006B",
        "EPOCH": "2026-04-18T07:03:03.544992",
        "MEAN_MOTION": 14.86882026,
        "ECCENTRICITY": 0.00774772,
        "INCLINATION": 82.5284,
        "RA_OF_ASC_NODE": 222.4624,
        "ARG_OF_PERICENTER": 140.5848,
        "MEAN_ANOMALY": 220.1043,
        "EPHEMERIS_TYPE": 0,
        "CLASSIFICATION_TYPE": "U",
        "NORAD_CAT_ID": 16496,
        "ELEMENT_SET_NO": 999,
        "REV_AT_EPOCH": 15509,
        "BSTAR": 5.3041009e-05,
        "MEAN_MOTION_DOT": 5.28e-06,
        "MEAN_MOTION_DDOT": 0
    },
    {
        "OBJECT_NAME": "COSMOS 1743",
        "OBJECT_ID": "1986-034A",
        "EPOCH": "2026-04-18T17:23:43.026720",
        "MEAN_MOTION": 15.62043102,
        "ECCENTRICITY": 0.0007331,
        "INCLINATION": 82.533,
        "RA_OF_ASC_NODE": 31.7033,
        "ARG_OF_PERICENTER": 119.5023,
        "MEAN_ANOMALY": 240.6967,
        "EPHEMERIS_TYPE": 0,
        "CLASSIFICATION_TYPE": "U",
        "NORAD_CAT_ID": 16719,
        "ELEMENT_SET_NO": 999,
        "REV_AT_EPOCH": 18649,
        "BSTAR": 0.00052227,
        "MEAN_MOTION_DOT": 0.00045867,
        "MEAN_MOTION_DDOT": 0
    },
    {
        "OBJECT_NAME": "SL-14 R/B",
        "OBJECT_ID": "1986-046B",
        "EPOCH": "2026-04-18T13:06:38.325024",
        "MEAN_MOTION": 14.85628997,
        "ECCENTRICITY": 0.0024694,
        "INCLINATION": 82.4838,
        "RA_OF_ASC_NODE": 42.5206,
        "ARG_OF_PERICENTER": 95.84,
        "MEAN_ANOMALY": 264.5632,
        "EPHEMERIS_TYPE": 0,
        "CLASSIFICATION_TYPE": "U",
        "NORAD_CAT_ID": 16792,
        "ELEMENT_SET_NO": 999,
        "REV_AT_EPOCH": 13232,
        "BSTAR": 3.4196e-05,
        "MEAN_MOTION_DOT": 3.22e-06,
        "MEAN_MOTION_DDOT": 0
    },
    {
        "OBJECT_NAME": "SL-14 R/B",
        "OBJECT_ID": "1986-055B",
        "EPOCH": "2026-04-18T20:51:54.405216",
        "MEAN_MOTION": 14.85677787,
        "ECCENTRICITY": 0.0018412,
        "INCLINATION": 82.5177,
        "RA_OF_ASC_NODE": 88.8942,
        "ARG_OF_PERICENTER": 194.5403,
        "MEAN_ANOMALY": 185.0118,
        "EPHEMERIS_TYPE": 0,
        "CLASSIFICATION_TYPE": "U",
        "NORAD_CAT_ID": 16882,
        "ELEMENT_SET_NO": 999,
        "REV_AT_EPOCH": 12533,
        "BSTAR": 3.1375e-05,
        "MEAN_MOTION_DOT": 2.97e-06,
        "MEAN_MOTION_DDOT": 0
    },
    {
        "OBJECT_NAME": "AJISAI (EGS)",
        "OBJECT_ID": "1986-061A",
        "EPOCH": "2026-04-18T21:30:46.998720",
        "MEAN_MOTION": 12.44515825,
        "ECCENTRICITY": 0.0011406,
        "INCLINATION": 50.0111,
        "RA_OF_ASC_NODE": 329.7151,
        "ARG_OF_PERICENTER": 30.2615,
        "MEAN_ANOMALY": 161.968,
        "EPHEMERIS_TYPE": 0,
        "CLASSIFICATION_TYPE": "U",
        "NORAD_CAT_ID": 16908,
        "ELEMENT_SET_NO": 999,
        "REV_AT_EPOCH": 47300,
        "BSTAR": 7.1009e-05,
        "MEAN_MOTION_DOT": -8.7e-07,
        "MEAN_MOTION_DDOT": 0
    }
]