SL-3 R/B                
1 13819U 83010B   26108.60427554  .00012233  00000+0  23593-3 0  9999
2 13819  81.1009 313.2598 0015024 267.9304  92.0221 15.47572890364116
SL-3 R/B                
1 14208U 83075B   26108.80666190  .00009500  00000+0  24339-3 0  9998
2 14208  97.6127 114.9333 0023217  87.0370 273.3531 15.39329798336320
COSMOS 1536             
1 14699U 84013A   26108.83469983  .00005975  00000+0  24193-3 0  9999
2 14699  82.5445  67.9176 0015687 135.3319 224.9185 15.24366399278733
SL-14 R/B               
1 14820U 84027B   26108.55636619  .00000329  00000+0  34781-4 0  9994
2 14820  82.5442 207.6275 0017535 196.7511 163.3129 14.86017608253558
SL-8 R/B                
1 15483U 85006B   26108.60482154  .00000145  00000+0  56548-4 0  9998
2 15483  74.0462 187.7024 0017197  92.4220  13.1046 14.37808728159760
SL-12 R/B(2)            
1 15772U 85042D   26108.85887170 -.00000015  00000+0  14730-4 0  9997
2 15772  71.1104   2.8635 0033204  61.5417 346.4829 14.21993634120100
SL-14 R/B               
1 15945U 85069B   26108.59626199  .00000288  00000+0  29690-4 0  9993
2 15945  82.5286 347.4182 0020197  62.5060 297.8207 14.86472564178765
SL-16 R/B               
1 16182U 85097B   26108.62233696  .00000065  00000+0  56300-4 0  9999
2 16182  71.0036  56.4794 0008455 210.9890 322.7358 14.16606928 92883
SL-14 R/B               
1 16496U 86006B   26108.29379103  .00000528  00000+0  53041-4 0  9998
2 16496  82.5284 222.4624 0077477 140.5848 220.1043 14.86882026155098
COSMOS 1743             
1 16719U 86034A   26108.72480355  .00045867  00000+0  52227-3 0  9996
2 16719  82.5330  31.7033 0007331 119.5023 240.6967 15.62043102186495
SL-14 R/B               
1 16792U 86046B   26108.54627691  .00000322  00000+0  34196-4 0  9999
2 16792  82.4838  42.5206 0024694  95.8400 264.5632 14.85628997132328
SL-14 R/B               
1 16882U 86055B   26108.86937969  .00000297  00000+0  31375-4 0  9993
2 16882  82.5177  88.8942 0018412 194.5403 185.0118 14.85677787125336
AJISAI (EGS)            
1 16908U 86061A   26108.89637730 -.00000087  00000+0  71009-4 0  9991
2 16908  50.0111 329.7151 0011406  30.2615 161.9680 12.44515825473003
